APRIZESAT 2             
1 28366U 04025A   18114.52896761 -.00000015  00000-0  93950-5 0  9993
2 28366  98.3286  23.5344 0107285 197.9403 161.7985 14.36639227724294
SAUDICOMSAT 1           
1 28369U 04025D   18114.18537302  .00000073  00000-0  28700-4 0  9994
2 28369  98.2383  64.7288 0034268 144.7369 215.6103 14.52426677731930
SAUDICOMSAT 2           
1 28370U 04025E   18114.10562930  .00000055  00000-0  27176-4 0  9999
2 28370  98.3397  58.9442 0056658 284.1895  75.3007 14.47367899729435
APRIZESAT 1             
1 28372U 04025G   18114.47278946  .00000000  00000-0  11863-4 0  9998
2 28372  98.2957  61.6389 0045584 216.4656 143.3431 14.49542833730667
NANOSAT-1               
1 28493U 04049B   18114.20922886  .00000084  00000-0  20915-4 0  9998
2 28493  98.1663 191.4345 0005913  92.1647 268.0237 14.73411560716728
SAUDICOMSAT 7           
1 31119U 07012C   18113.88050207  .00000066  00000-0  22345-4 0  9991
2 31119  97.9956  70.7434 0060462 163.5133 196.8054 14.61656551587291
SAUDICOMSAT 6           
1 31121U 07012E   18113.86685139  .00000059  00000-0  22373-4 0  9993
2 31121  98.0591  63.9390 0075512 235.1929 124.2151 14.58456410586017
SAUDICOMSAT 5           
1 31124U 07012H   18113.86361767  .00000075  00000-0  23309-4 0  9992
2 31124  97.9564  74.7518 0052782 127.7917 232.8082 14.63351323587986
SAUDICOMSAT 3           
1 31125U 07012J   18113.89803148  .00000117  00000-0  30205-4 0  9990
2 31125  97.9159  79.0957 0044802  93.3352 267.2978 14.65080800588570
SAUDICOMSAT 4           
1 31127U 07012L   18113.85102815  .00000065  00000-0  22833-4 0  9991
2 31127  98.0269  67.6119 0067625 197.3216 162.5677 14.60168400586682
APRIZESAT 4             
1 35684U 09041D   18114.09713257  .00000075  00000-0  17469-4 0  9992
2 35684  98.1690  65.3613 0047328 174.9465 246.4614 14.79122545471093
APRIZESAT 3             
1 35686U 09041F   18114.54578386  .00000121  00000-0  19679-4 0  9993
2 35686  98.2750 132.2648 0074450  82.2205 278.7454 14.87195883473461
AISSAT 1                
1 36797U 10035C   18113.88456295  .00000180  00000-0  27054-4 0  9993
2 36797  98.0668 236.5312 0012444  66.5227 293.7295 14.86016872421441
OBJECT G                
1 43186U 18014G   18114.52825136 -.00000183  00000-0 -10961-4 0  9998
2 43186  97.7281  23.6844 0010638 338.4787  21.5986 14.96423927 12295
OBJECT H                
1 43187U 18014H   18114.32760365 -.00000188  00000-0 -11470-4 0  9990
2 43187  97.7278  23.4846 0010655 339.1925  20.8861 14.96424872 12264
OBJECT J                
1 43188U 18014J   18114.52815873 -.00000179  00000-0 -10660-4 0  9998
2 43188  97.7282  23.6852 0010647 338.5530  21.5244 14.96425696 12296
OBJECT K                
1 43189U 18014K   18114.52821743 -.00000181  00000-0 -10780-4 0  9998
2 43189  97.7279  23.6821 0010635 338.4418  21.6354 14.96424508 10843
